ONEWEB-0517             
1 54135U 22138Y   23240.82743896  .00002321  00000+0  57650-2 0  9994
2 54135  87.9241 148.6236 0002030  83.1945 276.9419 13.19711118 41855
ONEWEB-0518             
1 54136U 22138Z   23240.69476876  .00000049  00000+0  90497-4 0  9994
2 54136  87.9240 148.6483 0001748  75.9806 284.1520 13.19725434 41837
ONEWEB-0519             
1 54137U 22138AA  23240.72002649  .00000000  00000+0 -32693-4 0  9994
2 54137  87.9285 148.6393 0001678  91.6324 268.5001 13.19723854 41844
ONEWEB-0520             
1 54138U 22138AB  23240.67921381 -.00000948  00000+0 -23940-2 0  9997
2 54138  87.9242 148.6613 0001926  93.6480 266.4873 13.19927320 41820
ONEWEB-0521             
1 54139U 22138AC  23240.71201342  .00000023  00000+0  24416-4 0  9994
2 54139  87.9282 148.6403 0001584  71.2705 288.8599 13.19622373 41771
ONEWEB-0522             
1 54140U 22138AD  23240.69184274  .00000042  00000+0  73110-4 0  9993
2 54140  87.9281 148.6464 0001982  82.2110 277.9248 13.19925957 41812
ONEWEB-0523             
1 54141U 22138AE  23240.70826712  .00000086  00000+0  18031-3 0  9994
2 54141  87.9146 118.2197 0002395  51.3959 308.7389 13.20773224 44201
ONEWEB-0524             
1 54142U 22138AF  23240.69566125  .00000070  00000+0  14075-3 0  9999
2 54142  87.9242 118.1833 0003030  73.4202 286.7264 13.20773206 44205
